HST                     
1 20580U 90037B   25210.43824978  .00006420  00000+0  23659-3 0  9998
2 20580  28.4679 118.4409 0001883 192.9181 167.1366 15.25702771739142
POLAR                   
1 23802U 96013A   25208.77900367  .00000216  00000+0  00000+0 0  9997
2 23802  79.4895 230.6243 6158053 220.0256  72.6984  1.29846786140646
SWAS                    
1 25560U 98071A   25210.60238032  .00004186  00000+0  29020-3 0  9991
2 25560  69.8988 337.4722 0005051   7.3145 352.8090 15.06399598448634
CXO                     
1 25867U 99040B   25211.75209273  .00000581  00000+0  00000+0 0  9998
2 25867  50.4040 127.7709 8352943 310.0518   0.6417  0.37806133 16105
XMM-NEWTON              
1 25989U 99066A   25211.25177390  .00000034  00000+0  00000+0 0  9993
2 25989  66.0535 287.2402 4818865  70.5597   0.0804  0.50137030 21394
TERRA                   
1 25994U 99068A   25210.58105193  .00000441  00000+0  99558-4 0  9991
2 25994  97.9954 267.0980 0002945 141.3993 356.3078 14.60746048362504
CLUSTER II-FM7 (SAMBA)  
1 26410U 00041A   25211.72664190  .00002601  00000+0  00000+0 0  9991
2 26410 145.1750  14.3864 8477178 229.7390 359.2539  0.44783729 18872
CLUSTER II-FM5 (RUMBA)  
1 26463U 00045A   25207.42670395  .00009129  00000+0  00000+0 0  9991
2 26463 150.2301  84.3745 9100637 303.6327   0.7925  0.42920663 18730
CLUSTER II-FM8 (TANGO)  
1 26464U 00045B   25211.44453722  .00002631  00000+0  00000+0 0  9993
2 26464 145.4507  14.8126 8482192 230.0350 359.1888  0.44419495 18875
ODIN                    
1 26702U 01007A   25210.17279973  .00019118  00000+0  43991-3 0  9998
2 26702  97.4400 234.6078 0002353 243.9406 116.1599 15.42681769339224
TIMED                   
1 26998U 01055B   25210.33954303  .00001436  00000+0  13810-3 0  9994
2 26998  74.0685 164.5005 0000701 283.3098  76.8008 14.94071756282586
CORIOLIS                
1 27640U 03001A   25210.59393688  .00000095  00000+0  65127-4 0  9992
2 27640  98.7133 217.4204 0015123  64.2237 296.0498 14.19804696168447
SORCE                   
1 27651U 03004A   25210.55454194  .00003153  00000+0  25428-3 0  9990
2 27651  39.9919 298.7222 0018327 250.5438 109.3375 15.00849073223364
MOST                    
1 27843U 03031D   25210.57244222  .00000060  00000+0  47398-4 0  9999
2 27843  98.7063 217.7892 0011015 102.6191 257.6219 14.21219855144888
SCISAT 1                
1 27858U 03036A   25210.16664078  .00000680  00000+0  92919-4 0  9997
2 27858  73.9299  92.8480 0008653 235.1954 124.8409 14.80781338183635
SWIFT                   
1 28485U 04047A   25210.00105793  .00022162  00000+0  52014-3 0  9994
2 28485  20.5547 102.1325 0005050 225.3572 134.6457 15.39923835136549
HINODE (SOLAR-B)        
1 29479U 06041A   25210.58492518  .00000759  00000+0  14078-3 0  9997
2 29479  98.0714 226.3253 0016539 228.1213 131.8581 14.67988333  7532
SHIJIAN-6 02A (SJ-6 02A)
1 29505U 06046A   25210.55035743  .00005263  00000+0  31114-3 0  9997
2 29505  97.6795 244.5026 0004265 149.4345 210.7134 15.11906919 23551
SHIJIAN-6 02B (SJ-6 02B)
1 29506U 06046B   25210.55752315  .00002106  00000+0  17410-3 0  9995
2 29506  97.7045 237.5863 0008936  66.2075 294.0085 14.99985114 22353
FGRST (GLAST)           
1 33053U 08029A   25210.49227087  .00003334  00000+0  13032-3 0  9996
2 33053  25.5823 280.9830 0009105 123.5140 236.6268 15.21360610946593
IBEX                    
1 33401U 08051A   25206.97184344 -.00002141  00000+0  00000+0 0  9997
2 33401  46.2961  10.9471 7278850  50.1397   2.4308  0.10949703  5381
SDO                     
1 36395U 10005A   25209.17307919 -.00000088  00000+0  00000+0 0  9992
2 36395  33.9678  91.2945 0000749  67.4541 107.5556  1.00277117 56816
CRYOSAT 2               
1 36508U 10013A   25210.60510559  .00000211  00000+0  51707-4 0  9995
2 36508  92.0103 199.3043 0002201  86.1546 273.9913 14.51907592811279
X-SAT                   
1 37389U 11015C   25210.54549762  .00000129  00000+0  72398-4 0  9994
2 37389  98.3146 198.6529 0013417 205.9854 154.0654 14.25054942742242
GCOM-W1 (SHIZUKU)       
1 38337U 12025A   25210.29654674  .00001298  00000+0  29816-3 0  9995
2 38337  98.2020 150.4425 0001468  88.1343  30.4841 14.57102643702017
NUSTAR                  
1 38358U 12031A   25210.58335648  .00014007  00000+0  91902-3 0  9991
2 38358   6.0264 285.9857 0008225 357.0735 154.3453 15.04235776  1307
NEOSSAT                 
1 39089U 13009D   25210.47179960  .00000181  00000+0  77458-4 0  9999
2 39089  98.4089  33.3730 0012015 124.9171 235.3146 14.35632399650439
BRITE-AUSTRIA           
1 39091U 13009F   25210.48967469  .00000185  00000+0  77652-4 0  9992
2 39091  98.3900  33.1252 0011287 120.4057 239.8247 14.36331193650726
IRIS                    
1 39197U 13033A   25210.54973276  .00001066  00000+0  13201-3 0  9994
2 39197  97.9509  45.7121 0023652 295.2467  64.6296 14.84678629652486
HISAKI (SPRINT-A)       
1 39253U 13049A   25210.24705805  .00000102  00000+0  48482-4 0  9992
2 39253  29.7218  61.7985 0137059 278.7500  79.7571 13.55497868587577
CASSIOPE                
1 39265U 13055A   25210.48895681  .00039033 -62176-6  59242-3 0  9990
2 39265  80.9399  91.1123 0383176  51.2412 312.2392 15.00290634618877
STSAT-3                 
1 39422U 13066G   25210.56331258  .00002701  00000+0  22108-3 0  9994
2 39422  97.5688 182.3289 0018560  61.8053 298.5043 15.00015775635793
SWARM B                 
1 39451U 13067A   25210.61232797  .00003047  00000+0  11877-3 0  9996
2 39451  87.7400  80.0958 0002828  96.7403 263.4166 15.25565405634019
SWARM A                 
1 39452U 13067B   25210.50711654  .00008799  00000+0  19862-3 0  9990
2 39452  87.3436 175.2086 0003254  93.7794 266.3834 15.43039060656402
SWARM C                 
1 39453U 13067C   25210.50701417  .00008898  00000+0  20086-3 0  9997
2 39453  87.3436 173.7993 0003261  93.6960 266.4670 15.43039442656374
BRITE-CA1 (TORONTO)     
1 40020U 14033L   25210.61399753  .00001117  00000+0  17881-3 0  9997
2 40020  97.9320 341.5485 0078971 228.8635 130.5739 14.71700916594758
OCO 2                   
1 40059U 14035A   25210.54549477  .00000475  00000+0  11557-3 0  9993
2 40059  98.2021 151.4348 0001390  81.5853 278.5503 14.57108638589062
BRITE-PL2 (HEWELIUSZ)   
1 40119U 14049B   25210.56246064  .00002371  00000+0  23472-3 0  9999
2 40119  97.8930 315.9178 0015918  98.9830 261.3191 14.92741812593287
MMS 1                   
1 40482U 15011A   25210.58335648 -.00001740  00000+0  00000+0 0  9999
2 40482  66.0220 354.2212 8659967 160.4970 112.7165  0.28470260  1386
MMS 2                   
1 40483U 15011B   25210.58335648 -.00001741  00000+0  00000+0 0  9991
2 40483  66.0237 354.2205 8662368 160.4969 112.7116  0.28469280  1380
MMS 3                   
1 40484U 15011C   25210.58335648 -.00001740  00000+0  00000+0 0  9991
2 40484  66.0282 354.2292 8661260 160.5064 112.6794  0.28469293  1389
MMS 4                   
1 40485U 15011D   25210.58335648 -.00001741  00000+0  00000+0 0  9993
2 40485  66.0189 354.2154 8661534 160.5127 112.6732  0.28470196  1383
ASTROSAT                
1 40930U 15052A   25210.28321111  .00001789  00000+0  13992-3 0  9999
2 40930   5.9978 318.0165 0007610 106.5806 253.5158 14.81515459531843
DAMPE                   
1 41173U 15078A   25210.52370293  .00001387  00000+0  50973-4 0  9994
2 41173  97.4497 209.7784 0013514 135.0723 225.1613 15.29563590535200
PISAT                   
1 41784U 16059B   25210.59000665  .00000998  00000+0  18103-3 0  9997
2 41784  97.8161 220.1960 0030229 153.2331 207.0442 14.68024402472397
HXMT (HUIYAN)           
1 42758U 17034A   25210.39480386  .00004298  00000+0  24024-3 0  9999
2 42758  43.0139 174.9578 0035741 266.1386  93.5374 15.14187663448651
FLYING LAPTOP           
1 42831U 17042G   25210.52329801  .00002112  00000+0  17907-3 0  9994
2 42831  97.4098  15.6291 0012802 140.4645 219.7514 14.98903576438082
ZHANGHENG 1-01 (CSES-1) 
1 43194U 18015C   25210.54407942  .00007944  00000+0  36105-3 0  9992
2 43194  97.6550   5.4418 0013097 346.8507  13.2385 15.20957998415603
SALSAT                  
1 46495U 20068K   25210.54824361  .00007419  00000+0  31511-3 0  9991
2 46495  97.8640 190.9144 0010812 358.8691   1.2518 15.23335651266133
IXPE                    
1 49954U 21121A   25210.58335648  .00010309  00000+0  62912-3 0  9995
2 49954   0.2296 229.6127 0008178 249.1041  49.6053 15.05889304199274
